[{"OBJECT_NAME":"ICEYE-X51","OBJECT_ID":"2025-052AZ","EPOCH":"2026-03-09T22:06:54.407520","MEAN_MOTION":15.00892494,"ECCENTRICITY":0.00020982,"INCLINATION":97.7349,"RA_OF_ASC_NODE":324.3635,"ARG_OF_PERICENTER":65.1031,"MEAN_ANOMALY":295.041,"EPHEMERIS_TYPE":0,"CLASSIFICATION_TYPE":"U","NORAD_CAT_ID":63257,"ELEMENT_SET_NO":999,"REV_AT_EPOCH":5391,"BSTAR":0.00046355347,"MEAN_MOTION_DOT":5.842e-5,"MEAN_MOTION_DDOT":0},{"OBJECT_NAME":"STARLINK-36118","OBJECT_ID":"2025-293G","EPOCH":"2026-03-09T18:52:55.578432","MEAN_MOTION":14.9831791,"ECCENTRICITY":0.00039551,"INCLINATION":70.0019,"RA_OF_ASC_NODE":94.1613,"ARG_OF_PERICENTER":270.0357,"MEAN_ANOMALY":90.0349,"EPHEMERIS_TYPE":0,"CLASSIFICATION_TYPE":"U","NORAD_CAT_ID":67009,"ELEMENT_SET_NO":999,"REV_AT_EPOCH":1490,"BSTAR":0.00042754978,"MEAN_MOTION_DOT":5.011e-5,"MEAN_MOTION_DDOT":0}]
